{
  "norad_id": 52281,
  "name": "STARLINK-3779",
  "history": [
    {
      "epoch": "2026-03-28T13:13:11.366400",
      "apogee_km": 540.7263906256758,
      "perigee_km": 538.7298947454956,
      "latitude_deg": -52.358734560022256,
      "longitude_deg": -179.0207039997913,
      "semi_major_axis_km": 6917.865142685585,
      "eccentricity": 0.0001443,
      "inclination_deg": 53.22,
      "raan_deg": 24.4485,
      "arg_perigee_deg": 84.0186,
      "mean_anomaly_deg": 276.097,
      "mean_motion_rev_day": 15.08844988
    },
    {
      "epoch": "2026-03-29T01:56:16.175328",
      "apogee_km": 540.6830930712113,
      "perigee_km": 538.7820625112336,
      "latitude_deg": 38.35606593084922,
      "longitude_deg": -128.14869407983497,
      "semi_major_axis_km": 6917.869577791222,
      "eccentricity": 0.0001374,
      "inclination_deg": 53.2193,
      "raan_deg": 22.0682,
      "arg_perigee_deg": 89.3491,
      "mean_anomaly_deg": 270.7659,
      "mean_motion_rev_day": 15.08843537
    }
  ]
}